COSMOS 2433 (720)       
1 32275U 07052A   22101.23245947 -.00000073  00000+0  00000+0 0  9994
2 32275  66.0839   6.9007 0002719 288.9293 242.1139  2.13104030112533
COSMOS 2432 (719)       
1 32276U 07052B   22101.30634442 -.00000073  00000+0  00000+0 0  9995
2 32276  66.0975   6.9967 0011596 332.3802 203.8505  2.13103459112538
COSMOS 2434 (721)       
1 32393U 07065A   22100.77386398  .00000020  00000+0  00000+0 0  9994
2 32393  64.3977 243.7345 0004714  80.7672 347.7808  2.13103077111231
COSMOS 2436 (723)       
1 32395U 07065C   22100.58928198  .00000021  00000+0  00000+0 0  9996
2 32395  64.4063 243.7974 0016029   7.2060  55.6513  2.13102935111167
COSMOS 2456 (730)       
1 36111U 09070A   22101.35508815  .00000086  00000+0  00000+0 0  9991
2 36111  64.3351 123.3581 0005757 300.8236  20.1235  2.13099173 95906
COSMOS 2457 (733)       
1 36112U 09070B   22100.53525699  .00000077  00000+0  00000+0 0  9990
2 36112  64.3178 123.2631 0004577 194.2274 344.5352  2.13101378 95897
COSMOS 2461 (735)       
1 36401U 10007B   22101.24858362 -.00000073  00000+0  00000+0 0  9995
2 36401  65.9703   5.7480 0022117   5.7436  35.1632  2.13103739 94268
COSMOS 2460 (732)       
1 36402U 10007C   22100.83679698 -.00000075  00000+0  00000+0 0  9995
2 36402  65.9572   5.7115 0002216   1.2467  31.5324  2.13106349 94258
COSMOS 2464 (736)       
1 37139U 10041C   22101.00009775  .00000017  00000+0  00000+0 0  9999
2 37139  63.9969 242.8360 0029680  13.6608  87.1767  2.13100685 90316
COSMOS 2476 (744)       
1 37867U 11064A   22100.71847284  .00000079  00000+0  00000+0 0  9993
2 37867  64.6251 124.7100 0023025 240.2775 217.2189  2.13101845 81241
COSMOS 2477 (745)       
1 37868U 11064B   22101.43498458  .00000087  00000+0  00000+0 0  9998
2 37868  64.6328 124.7494 0020407 241.9877 223.3401  2.13101684 81218
COSMOS 2475 (743)       
1 37869U 11064C   22100.59448453  .00000077  00000+0  00000+0 0  9994
2 37869  64.6403 124.7851 0024819 257.8444 240.6234  2.13101868 81206
COSMOS 2485 (747)       
1 39155U 13019A   22100.61680279  .00000078  00000+0  00000+0 0  9994
2 39155  64.7890 125.1273 0023340 236.0866 187.8103  2.13101865 69711
COSMOS 2492 (754)       
1 39620U 14012A   22100.91031061 -.00000074  00000+0  00000+0 0  9994
2 39620  65.8437   5.4011 0014630 327.9415 355.6686  2.13103156 62662
COSMOS 2500 (755)       
1 40001U 14032A   22100.44007824 -.00000077  00000+0  00000+0 0  9992
2 40001  65.7828   5.2824 0004527 213.5018 328.2079  2.13102416 60874
COSMOS 2501 (702K)      
1 40315U 14075A   22101.39470473  .00000015  00000+0  00000+0 0  9997
2 40315  63.7045 243.5168 0016844 205.4844 156.2361  2.13101397 57305
COSMOS 2514 (751)       
1 41330U 16008A   22100.66909615 -.00000076  00000+0  00000+0 0  9995
2 41330  65.5839   4.9846 0008332 220.2550 320.8565  2.13102787 48048
COSMOS 2516 (753)       
1 41554U 16032A   22101.17881925  .00000017  00000+0  00000+0 0  9994
2 41554  63.9317 243.7815 0012693 211.4687 262.0597  2.13106074 45666
COSMOS 2522 (752)       
1 42939U 17055A   22100.73705615  .00000020  00000+0  00000+0 0  9994
2 42939  64.1660 244.1719 0005561 239.2025 113.3393  2.13101903 35405
COSMOS 2527 (756)       
1 43508U 18053A   22101.33303521  .00000087  00000+0  00000+0 0  9996
2 43508  64.9525 125.0889 0009624 240.6914 241.1745  2.13102554 29719
COSMOS 2529 (757)       
1 43687U 18086A   22100.94352817  .00000020  00000+0  00000+0 0  9995
2 43687  64.3804 244.4630 0007604 271.8476 194.6047  2.13102057 26729
COSMOS 2534 (758)       
1 44299U 19030A   22100.67705505  .00000021  00000+0  00000+0 0  9992
2 44299  64.4517 244.3505 0010563 294.9896 101.6478  2.13101972 22368
COSMOS 2544 (759)       
1 44850U 19088A   22100.87101088  .00000081  00000+0  00000+0 0  9992
2 44850  64.9374 124.9583 0014437 262.7619 268.1730  2.13102318 18131
COSMOS 2545 (760)       
1 45358U 20018A   22101.53879406 -.00000073  00000+0  00000+0 0  9993
2 45358  64.9209   5.6181 0008382 261.2543 271.5500  2.13102624 16101
COSMOS 2547 (705K)      
1 46805U 20075A   22101.19983890  .00000018  00000+0  00000+0 0  9997
2 46805  64.6749 243.7372 0005565 244.2957 240.8532  2.13103059 11340
